CCSDS_OMM_VERS = 2.0
CREATION_DATE  = 
ORIGINATOR     = 

OBJECT_NAME    = STARLINK-36522
OBJECT_ID      = 2026-008S
CENTER_NAME    = EARTH
REF_FRAME      = TEME
TIME_SYSTEM    = UTC
MEAN_ELEMENT_THEORY = SGP/SGP4

EPOCH          = 2026-02-03T12:00:01.999296
MEAN_MOTION    = 15.66653395
ECCENTRICITY   = .0001274
INCLINATION    = 42.9999
RA_OF_ASC_NODE = 40.9929
ARG_OF_PERICENTER = 271.8679
MEAN_ANOMALY   = 50.5824

EPHEMERIS_TYPE = 0
CLASSIFICATION_TYPE = U
NORAD_CAT_ID   = 67461
ELEMENT_SET_NO = 999
REV_AT_EPOCH   = 430
BSTAR          = -.21396E-1
MEAN_MOTION_DOT = -.2029125E-1
MEAN_MOTION_DDOT = 0

CCSDS_OMM_VERS = 2.0
CREATION_DATE  = 
ORIGINATOR     = 

OBJECT_NAME    = STARLINK-36504
OBJECT_ID      = 2026-008T
CENTER_NAME    = EARTH
REF_FRAME      = TEME
TIME_SYSTEM    = UTC
MEAN_ELEMENT_THEORY = SGP/SGP4

EPOCH          = 2026-02-03T10:30:39.426048
MEAN_MOTION    = 15.75099494
ECCENTRICITY   = .0001264
INCLINATION    = 42.9997
RA_OF_ASC_NODE = 41.2925
ARG_OF_PERICENTER = 268.5599
MEAN_ANOMALY   = 91.5125

EPHEMERIS_TYPE = 0
CLASSIFICATION_TYPE = U
NORAD_CAT_ID   = 67462
ELEMENT_SET_NO = 999
REV_AT_EPOCH   = 430
BSTAR          = .12229E-2
MEAN_MOTION_DOT = .192216E-2
MEAN_MOTION_DDOT = 0

CCSDS_OMM_VERS = 2.0
CREATION_DATE  = 
ORIGINATOR     = 

OBJECT_NAME    = STARLINK-36505
OBJECT_ID      = 2026-008U
CENTER_NAME    = EARTH
REF_FRAME      = TEME
TIME_SYSTEM    = UTC
MEAN_ELEMENT_THEORY = SGP/SGP4

EPOCH          = 2026-02-03T10:30:10.595232
MEAN_MOTION    = 15.75052984
ECCENTRICITY   = .0001272
INCLINATION    = 42.9997
RA_OF_ASC_NODE = 41.2902
ARG_OF_PERICENTER = 292.1449
MEAN_ANOMALY   = 67.9285

EPHEMERIS_TYPE = 0
CLASSIFICATION_TYPE = U
NORAD_CAT_ID   = 67463
ELEMENT_SET_NO = 999
REV_AT_EPOCH   = 430
BSTAR          = .72052E-3
MEAN_MOTION_DOT = .111744E-2
MEAN_MOTION_DDOT = 0

CCSDS_OMM_VERS = 2.0
CREATION_DATE  = 
ORIGINATOR     = 

OBJECT_NAME    = STARLINK-36421
OBJECT_ID      = 2026-008V
CENTER_NAME    = EARTH
REF_FRAME      = TEME
TIME_SYSTEM    = UTC
MEAN_ELEMENT_THEORY = SGP/SGP4

EPOCH          = 2026-02-03T12:00:01.999296
MEAN_MOTION    = 15.66531569
ECCENTRICITY   = .0001321
INCLINATION    = 43.0000
RA_OF_ASC_NODE = 40.9808
ARG_OF_PERICENTER = 271.8381
MEAN_ANOMALY   = 55.5331

EPHEMERIS_TYPE = 0
CLASSIFICATION_TYPE = U
NORAD_CAT_ID   = 67464
ELEMENT_SET_NO = 999
REV_AT_EPOCH   = 430
BSTAR          = -.21501E-1
MEAN_MOTION_DOT = -.2029042E-1
MEAN_MOTION_DDOT = 0

CCSDS_OMM_VERS = 2.0
CREATION_DATE  = 
ORIGINATOR     = 

OBJECT_NAME    = STARLINK-36437
OBJECT_ID      = 2026-008W
CENTER_NAME    = EARTH
REF_FRAME      = TEME
TIME_SYSTEM    = UTC
MEAN_ELEMENT_THEORY = SGP/SGP4

EPOCH          = 2026-02-03T10:29:11.844096
MEAN_MOTION    = 15.75095342
ECCENTRICITY   = .0001523
INCLINATION    = 43.0002
RA_OF_ASC_NODE = 41.2845
ARG_OF_PERICENTER = 263.8136
MEAN_ANOMALY   = 96.2560

EPHEMERIS_TYPE = 0
CLASSIFICATION_TYPE = U
NORAD_CAT_ID   = 67465
ELEMENT_SET_NO = 999
REV_AT_EPOCH   = 430
BSTAR          = .10866E-2
MEAN_MOTION_DOT = .170254E-2
MEAN_MOTION_DDOT = 0

CCSDS_OMM_VERS = 2.0
CREATION_DATE  = 
ORIGINATOR     = 

OBJECT_NAME    = STARLINK-36520
OBJECT_ID      = 2026-008X
CENTER_NAME    = EARTH
REF_FRAME      = TEME
TIME_SYSTEM    = UTC
MEAN_ELEMENT_THEORY = SGP/SGP4

EPOCH          = 2026-02-03T12:00:01.999296
MEAN_MOTION    = 15.71019197
ECCENTRICITY   = .000133
INCLINATION    = 42.9997
RA_OF_ASC_NODE = 40.9142
ARG_OF_PERICENTER = 274.4280
MEAN_ANOMALY   = 79.2192

EPHEMERIS_TYPE = 0
CLASSIFICATION_TYPE = U
NORAD_CAT_ID   = 67466
ELEMENT_SET_NO = 999
REV_AT_EPOCH   = 430
BSTAR          = -.17952E-1
MEAN_MOTION_DOT = -.2041306E-1
MEAN_MOTION_DDOT = 0

CCSDS_OMM_VERS = 2.0
CREATION_DATE  = 
ORIGINATOR     = 

OBJECT_NAME    = STARLINK-36425
OBJECT_ID      = 2026-008Y
CENTER_NAME    = EARTH
REF_FRAME      = TEME
TIME_SYSTEM    = UTC
MEAN_ELEMENT_THEORY = SGP/SGP4

EPOCH          = 2026-02-03T12:00:01.999296
MEAN_MOTION    = 15.62857105
ECCENTRICITY   = .000121
INCLINATION    = 42.9996
RA_OF_ASC_NODE = 41.0398
ARG_OF_PERICENTER = 274.2464
MEAN_ANOMALY   = 28.5660

EPHEMERIS_TYPE = 0
CLASSIFICATION_TYPE = U
NORAD_CAT_ID   = 67467
ELEMENT_SET_NO = 999
REV_AT_EPOCH   = 430
BSTAR          = -.2473E-1
MEAN_MOTION_DOT = -.2014632E-1
MEAN_MOTION_DDOT = 0

CCSDS_OMM_VERS = 2.0
CREATION_DATE  = 
ORIGINATOR     = 

OBJECT_NAME    = STARLINK-36414
OBJECT_ID      = 2026-008Z
CENTER_NAME    = EARTH
REF_FRAME      = TEME
TIME_SYSTEM    = UTC
MEAN_ELEMENT_THEORY = SGP/SGP4

EPOCH          = 2026-02-03T12:00:01.999296
MEAN_MOTION    = 15.69238446
ECCENTRICITY   = .0001193
INCLINATION    = 43.0000
RA_OF_ASC_NODE = 40.6553
ARG_OF_PERICENTER = 282.7578
MEAN_ANOMALY   = 174.1005

EPHEMERIS_TYPE = 0
CLASSIFICATION_TYPE = U
NORAD_CAT_ID   = 67468
ELEMENT_SET_NO = 999
REV_AT_EPOCH   = 430
BSTAR          = -.19259E-1
MEAN_MOTION_DOT = -.2032388E-1
MEAN_MOTION_DDOT = 0

CCSDS_OMM_VERS = 2.0
CREATION_DATE  = 
ORIGINATOR     = 

OBJECT_NAME    = STARLINK-36441
OBJECT_ID      = 2026-008AA
CENTER_NAME    = EARTH
REF_FRAME      = TEME
TIME_SYSTEM    = UTC
MEAN_ELEMENT_THEORY = SGP/SGP4

EPOCH          = 2026-02-03T12:00:01.999296
MEAN_MOTION    = 15.65996459
ECCENTRICITY   = .0001131
INCLINATION    = 42.9998
RA_OF_ASC_NODE = 40.6919
ARG_OF_PERICENTER = 283.6812
MEAN_ANOMALY   = 157.7985

EPHEMERIS_TYPE = 0
CLASSIFICATION_TYPE = U
NORAD_CAT_ID   = 67469
ELEMENT_SET_NO = 999
REV_AT_EPOCH   = 430
BSTAR          = -.21908E-1
MEAN_MOTION_DOT = -.202344E-1
MEAN_MOTION_DDOT = 0

CCSDS_OMM_VERS = 2.0
CREATION_DATE  = 
ORIGINATOR     = 

OBJECT_NAME    = STARLINK-36454
OBJECT_ID      = 2026-008AB
CENTER_NAME    = EARTH
REF_FRAME      = TEME
TIME_SYSTEM    = UTC
MEAN_ELEMENT_THEORY = SGP/SGP4

EPOCH          = 2026-02-03T12:00:01.999296
MEAN_MOTION    = 15.67717811
ECCENTRICITY   = .0001058
INCLINATION    = 42.9999
RA_OF_ASC_NODE = 40.6589
ARG_OF_PERICENTER = 283.4423
MEAN_ANOMALY   = 171.1940

EPHEMERIS_TYPE = 0
CLASSIFICATION_TYPE = U
NORAD_CAT_ID   = 67470
ELEMENT_SET_NO = 999
REV_AT_EPOCH   = 430
BSTAR          = -.20496E-1
MEAN_MOTION_DOT = -.2030447E-1
MEAN_MOTION_DDOT = 0

CCSDS_OMM_VERS = 2.0
CREATION_DATE  = 
ORIGINATOR     = 

OBJECT_NAME    = STARLINK-36334
OBJECT_ID      = 2026-008AC
CENTER_NAME    = EARTH
REF_FRAME      = TEME
TIME_SYSTEM    = UTC
MEAN_ELEMENT_THEORY = SGP/SGP4

EPOCH          = 2026-02-03T12:00:01.999296
MEAN_MOTION    = 15.71260004
ECCENTRICITY   = .0001097
INCLINATION    = 42.9999
RA_OF_ASC_NODE = 40.6296
ARG_OF_PERICENTER = 282.6178
MEAN_ANOMALY   = 183.8977

EPHEMERIS_TYPE = 0
CLASSIFICATION_TYPE = U
NORAD_CAT_ID   = 67471
ELEMENT_SET_NO = 999
REV_AT_EPOCH   = 430
BSTAR          = -.17653E-1
MEAN_MOTION_DOT = -.2029405E-1
MEAN_MOTION_DDOT = 0

CCSDS_OMM_VERS = 2.0
CREATION_DATE  = 
ORIGINATOR     = 

OBJECT_NAME    = STARLINK-36269
OBJECT_ID      = 2026-008AD
CENTER_NAME    = EARTH
REF_FRAME      = TEME
TIME_SYSTEM    = UTC
MEAN_ELEMENT_THEORY = SGP/SGP4

EPOCH          = 2026-02-03T12:00:01.999296
MEAN_MOTION    = 15.69276854
ECCENTRICITY   = .0001121
INCLINATION    = 42.9999
RA_OF_ASC_NODE = 40.6331
ARG_OF_PERICENTER = 281.6168
MEAN_ANOMALY   = 183.0715

EPHEMERIS_TYPE = 0
CLASSIFICATION_TYPE = U
NORAD_CAT_ID   = 67472
ELEMENT_SET_NO = 999
REV_AT_EPOCH   = 432
BSTAR          = -.19253E-1
MEAN_MOTION_DOT = -.2034684E-1
MEAN_MOTION_DDOT = 0

