STARLINK-36522          
1 67461U 26008S   26034.50002314 -.02029125  00000+0 -21396-1 0  9994
2 67461  42.9999  40.9929 0001274 271.8679  50.5824 15.66653395  4305
STARLINK-36504          
1 67462U 26008T   26034.43795632  .00192216  00000+0  12229-2 0  9993
2 67462  42.9997  41.2925 0001264 268.5599  91.5125 15.75099494  4300
STARLINK-36505          
1 67463U 26008U   26034.43762263  .00111744  00000+0  72052-3 0  9996
2 67463  42.9997  41.2902 0001272 292.1449  67.9285 15.75052984  4309
STARLINK-36421          
1 67464U 26008V   26034.50002314 -.02029042  00000+0 -21501-1 0  9993
2 67464  43.0000  40.9808 0001321 271.8381  55.5331 15.66531569  4308
STARLINK-36437          
1 67465U 26008W   26034.43694264  .00170254  00000+0  10866-2 0  9998
2 67465  43.0002  41.2845 0001523 263.8136  96.2560 15.75095342  4309
STARLINK-36520          
1 67466U 26008X   26034.50002314 -.02041306  00000+0 -17952-1 0  9997
2 67466  42.9997  40.9142 0001330 274.4280  79.2192 15.71019197  4303
STARLINK-36425          
1 67467U 26008Y   26034.50002314 -.02014632  00000+0 -24730-1 0  9992
2 67467  42.9996  41.0398 0001210 274.2464  28.5660 15.62857105  4303
STARLINK-36414          
1 67468U 26008Z   26034.50002314 -.02032388  00000+0 -19259-1 0  9991
2 67468  43.0000  40.6553 0001193 282.7578 174.1005 15.69238446  4309
STARLINK-36441          
1 67469U 26008AA  26034.50002314 -.02023440  00000+0 -21908-1 0  9995
2 67469  42.9998  40.6919 0001131 283.6812 157.7985 15.65996459  4308
STARLINK-36454          
1 67470U 26008AB  26034.50002314 -.02030447  00000+0 -20496-1 0  9993
2 67470  42.9999  40.6589 0001058 283.4423 171.1940 15.67717811  4304
STARLINK-36334          
1 67471U 26008AC  26034.50002314 -.02029405  00000+0 -17653-1 0  9997
2 67471  42.9999  40.6296 0001097 282.6178 183.8977 15.71260004  4303
STARLINK-36269          
1 67472U 26008AD  26034.50002314 -.02034684  00000+0 -19253-1 0  9991
2 67472  42.9999  40.6331 0001121 281.6168 183.0715 15.69276854  4321
